NORAD_CAT_ID,OBJECT_NAME,OBJECT_TYPE,EPOCH,MEAN_MOTION,ECCENTRICITY,INCLINATION,RA_OF_ASC_NODE,ARG_OF_PERICENTER,MEAN_ANOMALY,BSTAR,MEAN_MOTION_DOT,MEAN_MOTION_DDOT,TLE_LINE0,TLE_LINE1,TLE_LINE2,SEMIMAJOR_AXIS,PERIOD,APOGEE,PERIGEE,DECAYED
54006.0,STARLINK-5096,PAYLOAD,2024-02-13 14:03:19,15.08844071,0.0001403,53.2188,3.4875,77.1532,282.9616,-1.4513e-05,-5.19e-06,0.0,0 STARLINK-5096,1 54006U 22125AU  24044.58563967 -.00000519  00000-0 -14513-4 0  9995,2 54006  53.2188   3.4875 0001403  77.1532 282.9616 15.08844071 75468,6917.868,95.437,540.704,538.762,0.0
54006.0,STARLINK-5096,PAYLOAD,2024-02-14 13:54:06,15.08839946,0.0001652,53.2185,359.0265,93.3128,266.8053,-5.3025e-05,-1.132e-05,0.0,0 STARLINK-5096,1 54006U 22125AU  24045.57923963 -.00001132  00000-0 -53025-4 0  9994,2 54006  53.2185 359.0265 0001652  93.3128 266.8053 15.08839946 75613,6917.881,95.438,540.888,538.603,0.0
54006.0,STARLINK-5096,PAYLOAD,2024-02-15 04:12:34,15.08843568,0.0001573,53.2192,356.3529,92.5245,267.5928,0.00021712,3.169e-05,0.0,0 STARLINK-5096,1 54006U 22125AU  24046.17540169  .00003169  00000-0  21712-3 0  9991,2 54006  53.2192 356.3529 0001573  92.5245 267.5928 15.08843568 75767,6917.869,95.437,540.823,538.646,0.0
54006.0,STARLINK-5096,PAYLOAD,2024-02-15 05:47:57,15.0884491,0.0001465,53.2183,356.054,90.0071,270.1089,0.00022135,3.237e-05,0.0,0 STARLINK-5096,1 54006U 22125AU  24046.24164026  .00003237  00000-0  22135-3 0  9999,2 54006  53.2183 356.0540 0001465  90.0071 270.1089 15.08844910 75712,6917.865,95.437,540.744,538.717,0.0
54006.0,STARLINK-5096,PAYLOAD,2024-02-15 13:44:53,15.08838896,0.0001602,53.2201,354.5682,81.5932,278.5241,0.00011166,1.489e-05,0.0,0 STARLINK-5096,1 54006U 22125AU  24046.57284483  .00001489  00000-0  11166-3 0  9994,2 54006  53.2201 354.5682 0001602  81.5932 278.5241 15.08838896 75827,6917.884,95.438,540.857,538.641,0.0
54006.0,STARLINK-5096,PAYLOAD,2024-02-16 13:35:40,15.08838868,0.0001322,53.2184,350.1041,90.431,269.6834,-3.088e-05,-7.79e-06,0.0,0 STARLINK-5096,1 54006U 22125AU  24047.56644539 -.00000779  00000-0 -30880-4 0  9994,2 54006  53.2184 350.1041 0001322  90.4310 269.6834 15.08838868 75914,6917.884,95.438,540.663,538.834,0.0
54006.0,STARLINK-5096,PAYLOAD,2024-02-17 02:18:45,15.08844606,0.0001476,53.2179,347.7265,89.8323,270.2838,3.228e-05,2.26e-06,0.0,0 STARLINK-5096,1 54006U 22125AU  24048.09636475  .00000226  00000-0  32280-4 0  9994,2 54006  53.2179 347.7265 0001476  89.8323 270.2838 15.08844606 76059,6917.866,95.437,540.752,538.71,0.0
54006.0,STARLINK-5096,PAYLOAD,2024-02-17 13:26:27,15.0884662,0.000143,53.22,345.6418,113.7026,246.4116,-1.4753e-05,-5.23e-06,0.0,0 STARLINK-5096,1 54006U 22125AU  24048.56004088 -.00000523  00000-0 -14753-4 0  9992,2 54006  53.2200 345.6418 0001430 113.7026 246.4116 15.08846620 76061,6917.86,95.437,540.714,538.736,0.0
54006.0,STARLINK-5096,PAYLOAD,2024-02-17 22:58:46,15.08840464,0.0001565,53.2192,343.8578,108.5108,251.6055,0.00014126,1.961e-05,0.0,0 STARLINK-5096,1 54006U 22125AU  24048.95748556  .00001961  00000-0  14126-3 0  9998,2 54006  53.2192 343.8578 0001565 108.5108 251.6055 15.08840464 76127,6917.879,95.438,540.827,538.661,0.0
54006.0,STARLINK-5096,PAYLOAD,2024-02-18 05:20:18,15.08853069,0.0001614,53.218,342.6691,80.5915,279.526,0.00019591,2.832e-05,0.0,0 STARLINK-5096,1 54006U 22125AU  24049.22243876  .00002832  00000-0  19591-3 0  9993,2 54006  53.2180 342.6691 0001614  80.5915 279.5260 15.08853069 76220,6917.84,95.437,540.822,538.589,0.0
54006.0,STARLINK-5096,PAYLOAD,2024-02-18 22:49:33,15.08843896,0.0001662,53.22,339.3975,107.0079,253.1095,5.8385e-05,6.41e-06,0.0,0 STARLINK-5096,1 54006U 22125AU  24049.95108242  .00000641  00000-0  58385-4 0  9991,2 54006  53.2200 339.3975 0001662 107.0079 253.1095 15.08843896 76276,6917.868,95.437,540.883,538.584,0.0
54006.0,STARLINK-5096,PAYLOAD,2024-02-19 02:00:19,15.08847885,0.0001527,53.2187,338.8077,83.8064,276.3102,0.00014183,1.97e-05,0.0,0 STARLINK-5096,1 54006U 22125AU  24050.08356181  .00001970  00000-0  14183-3 0  9997,2 54006  53.2187 338.8077 0001527  83.8064 276.3102 15.08847885 76359,6917.856,95.437,540.778,538.665,0.0
54006.0,STARLINK-5096,PAYLOAD,2024-02-19 05:11:05,15.08853651,0.0001426,53.2189,338.2103,86.2306,273.8849,0.00011623,1.563e-05,0.0,0 STARLINK-5096,1 54006U 22125AU  24050.21603763  .00001563  00000-0  11623-3 0  9997,2 54006  53.2189 338.2103 0001426  86.2306 273.8849 15.08853651 76313,6917.839,95.437,540.69,538.717,0.0
54006.0,STARLINK-5096,PAYLOAD,2024-02-19 22:40:21,15.08828916,0.0001681,53.2189,334.9398,112.8589,247.2581,-0.00010034,-1.884e-05,0.0,0 STARLINK-5096,1 54006U 22125AU  24050.94469109 -.00001884  00000-0 -10034-3 0  9994,2 54006  53.2189 334.9398 0001681 112.8589 247.2581 15.08828916 76420,6917.914,95.438,540.942,538.616,0.0
54006.0,STARLINK-5096,PAYLOAD,2024-02-20 01:51:07,15.08833103,0.0001379,53.2181,334.346,100.5842,259.5306,-2.8767e-05,-7.46e-06,0.0,0 STARLINK-5096,1 54006U 22125AU  24051.07717016 -.00000746  00000-0 -28767-4 0  9991,2 54006  53.2181 334.3460 0001379 100.5842 259.5306 15.08833103 76500,6917.901,95.438,540.72,538.812,0.0
54006.0,STARLINK-5096,PAYLOAD,2024-02-20 11:23:26,15.08840059,0.0001386,53.2185,332.5613,98.4811,261.6338,9.6383e-06,-1.35e-06,0.0,0 STARLINK-5096,1 54006U 22125AU  24051.47460736 -.00000135  00000-0  96383-5 0  9990,2 54006  53.2185 332.5613 0001386  98.4811 261.6338 15.08840059 76500,6917.88,95.438,540.704,538.786,0.0
54006.0,STARLINK-5096,PAYLOAD,2024-02-20 22:31:08,15.08838543,0.0001296,53.218,330.4801,95.4378,264.6762,6.4301e-05,7.36e-06,0.0,0 STARLINK-5096,1 54006U 22125AU  24051.93829065  .00000736  00000-0  64301-4 0  9995,2 54006  53.2180 330.4801 0001296  95.4378 264.6762 15.08838543 76572,6917.885,95.438,540.646,538.853,0.0
54006.0,STARLINK-5096,PAYLOAD,2024-02-21 11:14:13,15.08846061,0.0001246,53.218,328.101,88.3167,271.7968,0.00027147,4.036e-05,0.0,0 STARLINK-5096,1 54006U 22125AU  24052.46820696  .00004036  00000-0  27147-3 0  9998,2 54006  53.2180 328.1010 0001246  88.3167 271.7968 15.08846061 76650,6917.862,95.437,540.589,538.865,0.0
54006.0,STARLINK-5096,PAYLOAD,2024-02-21 22:21:55,15.08836282,0.0001964,53.2188,326.023,93.9919,266.1298,4.5269e-05,4.32e-06,0.0,0 STARLINK-5096,1 54006U 22125AU  24052.93189504  .00000432  00000-0  45269-4 0  9998,2 54006  53.2188 326.0230 0001964  93.9919 266.1298 15.08836282 76729,6917.892,95.438,541.115,538.398,0.0
54006.0,STARLINK-5096,PAYLOAD,2024-02-22 03:08:05,15.08836905,0.000147,53.2183,325.1277,85.5299,274.5861,5.4827e-05,5.85e-06,0.0,0 STARLINK-5096,1 54006U 22125AU  24053.13061494  .00000585  00000-0  54827-4 0  9997,2 54006  53.2183 325.1277 0001470  85.5299 274.5861 15.08836905 76816,6917.89,95.438,540.772,538.738,0.0
54006.0,STARLINK-5096,PAYLOAD,2024-02-22 11:05:00,15.08841664,0.000149,53.2184,323.6412,86.5277,273.5886,0.00011553,1.551e-05,0.0,0 STARLINK-5096,1 54006U 22125AU  24053.46181307  .00001551  00000-0  11553-3 0  9991,2 54006  53.2184 323.6412 0001490  86.5277 273.5886 15.08841664 76803,6917.875,95.437,540.771,538.71,0.0
54006.0,STARLINK-5096,PAYLOAD,2024-02-22 22:12:42,15.08843436,0.0001574,53.2188,321.5597,85.4519,274.6653,0.00013205,1.814e-05,0.0,0 STARLINK-5096,1 54006U 22125AU  24053.92549262  .00001814  00000-0  13205-3 0  9998,2 54006  53.2188 321.5597 0001574  85.4519 274.6653 15.08843436 76878,6917.87,95.437,540.824,538.646,0.0
54006.0,STARLINK-5096,PAYLOAD,2024-02-23 02:58:51,15.08853089,0.0001472,53.2183,320.6657,87.8782,272.2379,0.00016805,2.388e-05,0.0,0 STARLINK-5096,1 54006U 22125AU  24054.12420723  .00002388  00000-0  16805-3 0  9997,2 54006  53.2183 320.6657 0001472  87.8782 272.2379 15.08853089 76969,6917.84,95.437,540.724,538.687,0.0
54006.0,STARLINK-5096,PAYLOAD,2024-02-23 10:55:47,15.08840335,0.0001288,53.2178,319.1793,100.9607,259.153,3.5288e-05,2.74e-06,0.0,0 STARLINK-5096,1 54006U 22125AU  24054.45541148  .00000274  00000-0  35288-4 0  9997,2 54006  53.2178 319.1793 0001288 100.9607 259.1530 15.08840335 77015,6917.879,95.438,540.635,538.853,0.0
54006.0,STARLINK-5096,PAYLOAD,2024-02-23 22:03:29,15.08840184,0.0001795,53.2187,317.0983,92.8224,267.2973,0.00016749,2.379e-05,0.0,0 STARLINK-5096,1 54006U 22125AU  24054.91909623  .00002379  00000-0  16749-3 0  9992,2 54006  53.2187 317.0983 0001795  92.8224 267.2973 15.08840184 77024,6917.88,95.438,540.987,538.503,0.0
54006.0,STARLINK-5096,PAYLOAD,2024-02-24 10:46:34,15.0884076,0.0001447,53.2171,314.7183,102.229,257.8864,0.00010517,1.386e-05,0.0,0 STARLINK-5096,1 54006U 22125AU  24055.44901462  .00001386  00000-0  10517-3 0  9998,2 54006  53.2171 314.7183 0001447 102.2290 257.8864 15.08840760 77109,6917.878,95.438,540.744,538.742,0.0
54006.0,STARLINK-5096,PAYLOAD,2024-02-25 10:37:21,15.08847439,0.0001401,53.2167,310.2577,108.1646,251.9498,0.00024489,3.612e-05,0.0,0 STARLINK-5096,1 54006U 22125AU  24056.44261238  .00003612  00000-0  24489-3 0  9996,2 54006  53.2167 310.2577 0001401 108.1646 251.9498 15.08847439 77313,6917.858,95.437,540.692,538.753,0.0
54006.0,STARLINK-5096,PAYLOAD,2024-02-25 23:20:26,15.08848838,0.0001396,53.2171,307.8815,96.8795,263.2356,0.0002984,4.465e-05,0.0,0 STARLINK-5096,1 54006U 22125AU  24056.97253220  .00004465  00000-0  29840-3 0  9999,2 54006  53.2171 307.8815 0001396  96.8795 263.2356 15.08848838 77331,6917.853,95.437,540.684,538.753,0.0
54006.0,STARLINK-5096,PAYLOAD,2024-02-26 02:31:12,15.08852634,0.0001581,53.218,307.2857,98.3343,261.7829,0.00035388,5.35e-05,0.0,0 STARLINK-5096,1 54006U 22125AU  24057.10501039  .00005350  00000-0  35388-3 0  9997,2 54006  53.2180 307.2857 0001581  98.3343 261.7829 15.08852634 77352,6917.842,95.437,540.8,538.613,0.0
54006.0,STARLINK-5096,PAYLOAD,2024-02-26 20:00:27,15.08838484,0.0001338,53.2177,304.016,91.2127,268.9018,1.9361e-05,2e-07,0.0,0 STARLINK-5096,1 54006U 22125AU  24057.83365546  .00000020  00000-0  19361-4 0  9991,2 54006  53.2177 304.0160 0001338  91.2127 268.9018 15.08838484 77527,6917.885,95.438,540.676,538.824,0.0
